<?xml version="1.0" encoding="UTF-8"?>
<cdm xmlns:xsi="http://www.w3.org/2001/XMLSchema-instance"
xsi:noNamespaceSchemaLocation="http://sanaregistry.org/r/ndmxml/ndmxml-1.0-master.xsd"
id="CCSDS_CDM_VERS" version="1.0">
	<header>
		<COMMENT>JSPOC - CDM Test Message</COMMENT>
		<COMMENT>NOTES:</COMMENT>
		<COMMENT> -- TIME OF CLOSEST APPROACH IS THE VECTOR AND COVARIANCE TIME TAG </COMMENT>
		<COMMENT> -- DC SPAN IS THE TIME SPAN FOR THE LISTED NUMBER OF TRACKS       </COMMENT>
		<COMMENT> -- NUMBER OF TRACKS IS THE NUMBER OF 1 OR MORE OBSERVATION SENSOR </COMMENT>
		<COMMENT>    TRACKS ACQUIRED FROM A QUALITY SENSOR DURING THE DC TIME SPAN  </COMMENT>
		<COMMENT> -- TDR (EFG) STATE VECTORS ARE EARTH-FIXED ROTATING VECTORS       </COMMENT>
		<COMMENT>    REFERENCED TO THE TRUE EQUATOR OF DATE.                        </COMMENT>
		<COMMENT> -- RELATIVE VECTORS ARE IN ASSET-CENTERED INERTIAL UVW            </COMMENT>
		<COMMENT>    (RADIAL, IN-TRACK, CROSS-TRACK) COORDINATES                    </COMMENT>
		<COMMENT> -- COVARIANCE MATRICES ARE IN THEIR RESPECTIVE INERTIAL UVW       </COMMENT>
		<COMMENT>    (RADIAL, IN-TRACK, CROSS-TRACK) COORDINATES                    </COMMENT>
		<COMMENT> -- COVARIANCE MATRICES REPRESENT UNSCALED VALUES                  </COMMENT>
		<COMMENT> -- THE (7,X),(X,7) COMPONENTS OF THE COVARIANCE MATRICES ARE FOR  </COMMENT>
		<COMMENT>    ATMOSPHERIC DRAG EFFECTS                                       </COMMENT>
		<COMMENT> -- THE (8,X),(X,8) COMPONENTS OF THE COVARIANCE MATRICES ARE FOR  </COMMENT>
		<COMMENT>    SOLAR RADIATION PRESSURE EFFECTS                               </COMMENT>
		
		
		
		
		
		<CREATION_DATE>2012-12-10T02:52:44.000</CREATION_DATE>
		<ORIGINATOR>JSpOC</ORIGINATOR>
		<MESSAGE_FOR>NASA/GSFC ESC-AQUA</MESSAGE_FOR>
		<MESSAGE_ID>2012345025244Z</MESSAGE_ID>
	</header>
	<body>
		<relativeMetadataData>
			<COMMENT>RELATIVE DATA</COMMENT>
			
			<TCA>2012-12-13T16:40:05.590</TCA>
			<MISS_DISTANCE units="m">705</MISS_DISTANCE>
			<RELATIVE_SPEED units="m/s">12803</RELATIVE_SPEED>
			<relativeStateVector>
				<RELATIVE_POSITION_R units="m">167.5</RELATIVE_POSITION_R>
				<RELATIVE_POSITION_T units="m">371.4</RELATIVE_POSITION_T>
				<RELATIVE_POSITION_N units="m">576.5</RELATIVE_POSITION_N>
				<RELATIVE_VELOCITY_R units="m/s">-142.4</RELATIVE_VELOCITY_R>
				<RELATIVE_VELOCITY_T units="m/s">-10712.6</RELATIVE_VELOCITY_T>
				<RELATIVE_VELOCITY_N units="m/s">7010.8</RELATIVE_VELOCITY_N>
			</relativeStateVector>
			
			
		</relativeMetadataData>
		<segment>
			<metadata>
				<COMMENT>ASSET SATELLITE</COMMENT>
				<OBJECT>OBJECT1</OBJECT>
				<OBJECT_DESIGNATOR>27391</OBJECT_DESIGNATOR>
				<CATALOG_NAME>US SATCAT</CATALOG_NAME>
				<OBJECT_NAME>GRACE 1</OBJECT_NAME>
				<INTERNATIONAL_DESIGNATOR>2002-012A</INTERNATIONAL_DESIGNATOR>
				<EPHEMERIS_NAME>NONE</EPHEMERIS_NAME>
				<COVARIANCE_METHOD>CALCULATED</COVARIANCE_METHOD>
				<MANEUVERABLE>N/A</MANEUVERABLE>
				<ORBIT_CENTER>EARTH</ORBIT_CENTER>
				<REF_FRAME>ITRF</REF_FRAME>
				<GRAVITY_MODEL>EGM-96: 36D 36O</GRAVITY_MODEL>
				<ATMOSPHERIC_MODEL>JACCHIA 70 DCA</ATMOSPHERIC_MODEL>
				<N_BODY_PERTUBATIONS>MOON,SUN</N_BODY_PERTUBATIONS>
				<SOLAR_RAD_PRESSURE>NO</SOLAR_RAD_PRESSURE>
				<EARTH_TIDES>YES</EARTH_TIDES>
				<INTRACK_THRUST>NO</INTRACK_THRUST>
			</metadata>
			<data>
				<COMMENT>ASSET SATELLITE Data</COMMENT>
				<odParameters>
					<COMMENT>OD Parameters</COMMENT>
					
					
					<RECOMMENDED_OD_SPAN units="d">1.45</RECOMMENDED_OD_SPAN>
					<ACTUAL_OD_SPAN units="d">1.45</ACTUAL_OD_SPAN>
					<OBS_AVAILABLE>1225</OBS_AVAILABLE>
					<OBS_USED>1224</OBS_USED>
					
					
					<RESIDUALS_ACCEPTED units="%">99.0</RESIDUALS_ACCEPTED>
					<WEIGHTED_RMS>0.874</WEIGHTED_RMS>
				</odParameters>
				<additionalParameters>
					
					
					
					
					
					<CD_AREA_OVER_MASS units="m**2/kg">0.007222</CD_AREA_OVER_MASS>
					<CR_AREA_OVER_MASS units="m**2/kg">0.000000</CR_AREA_OVER_MASS>
					<SEDR units="W/kg">9.75035E-04</SEDR>
				</additionalParameters>
				<stateVector>
					<COMMENT>State Vector</COMMENT>
					<X units="km">-879.694151528</X>
					<Y units="km">-559.081377329</Y>
					<Z units="km">-6752.758905745</Z>
					<X_DOT units="km/s">-5.901323984</X_DOT>
					<Y_DOT units="km/s">-4.675509545</Y_DOT>
					<Z_DOT units="km/s">1.146753616</Z_DOT>
				</stateVector>
				<covarianceMatrix>
					<COMMENT>Covariance Matrix</COMMENT>
					<CR_R units="m**2">7.815E+01</CR_R>
					<CT_R units="m**2">-2.434E+04</CT_R>
					<CT_T units="m**2">1.009E+07</CT_T>
					<CN_R units="m**2">-7.927E-01</CN_R>
					<CN_T units="m**2">8.538E+02</CN_T>
					<CN_N units="m**2">1.638E+01</CN_N>
					<CRDOT_R units="m**2/s">0.000E+00</CRDOT_R>
					<CRDOT_T units="m**2/s">0.000E+00</CRDOT_T>
					<CRDOT_N units="m**2/s">0.000E+00</CRDOT_N>
					<CRDOT_RDOT units="m**2/s**2">0.000E+00</CRDOT_RDOT>
					<CTDOT_R units="m**2/s">0.000E+00</CTDOT_R>
					<CTDOT_T units="m**2/s">0.000E+00</CTDOT_T>
					<CTDOT_N units="m**2/s">0.000E+00</CTDOT_N>
					<CTDOT_RDOT units="m**2/s**2">0.000E+00</CTDOT_RDOT>
					<CTDOT_TDOT units="m**2/s**2">0.000E+00</CTDOT_TDOT>
					<CNDOT_R units="m**2/s">0.000E+00</CNDOT_R>
					<CNDOT_T units="m**2/s">0.000E+00</CNDOT_T>
					<CNDOT_N units="m**2/s">0.000E+00</CNDOT_N>
					<CNDOT_RDOT units="m**2/s**2">0.000E+00</CNDOT_RDOT>
					<CNDOT_TDOT units="m**2/s**2">0.000E+00</CNDOT_TDOT>
					<CNDOT_NDOT units="m**2/s**2">0.000E+00</CNDOT_NDOT>
				</covarianceMatrix>
			</data>
		</segment>
		<segment>
			<metadata>
				<COMMENT>CONJUNCTING SATELLITE</COMMENT>
				<OBJECT>OBJECT2</OBJECT>
				<OBJECT_DESIGNATOR>36282</OBJECT_DESIGNATOR>
				<CATALOG_NAME>US SATCAT</CATALOG_NAME>
				<OBJECT_NAME>FENGYUN 1C DEB</OBJECT_NAME>
				<INTERNATIONAL_DESIGNATOR>1999-025DX</INTERNATIONAL_DESIGNATOR>
				<EPHEMERIS_NAME>NONE</EPHEMERIS_NAME>
				<COVARIANCE_METHOD>CALCULATED</COVARIANCE_METHOD>
				<MANEUVERABLE>N/A</MANEUVERABLE>
				<ORBIT_CENTER>EARTH</ORBIT_CENTER>
				<REF_FRAME>ITRF</REF_FRAME>
				<GRAVITY_MODEL>EGM-96: 36D 36O</GRAVITY_MODEL>
				<ATMOSPHERIC_MODEL>JACCHIA 70 DCA</ATMOSPHERIC_MODEL>
				<N_BODY_PERTUBATIONS>MOON,SUN</N_BODY_PERTUBATIONS>
				<SOLAR_RAD_PRESSURE>NO</SOLAR_RAD_PRESSURE>
				<EARTH_TIDES>YES</EARTH_TIDES>
				<INTRACK_THRUST>NO</INTRACK_THRUST>
			</metadata>
			<data>
				<COMMENT>CONJUNCTING SATELLITE Data</COMMENT>
				<odParameters>
					<COMMENT>OD Parameters</COMMENT>
					
					
					<RECOMMENDED_OD_SPAN units="d">23.00</RECOMMENDED_OD_SPAN>
					<ACTUAL_OD_SPAN units="d">4.35</ACTUAL_OD_SPAN>
					<OBS_AVAILABLE>23</OBS_AVAILABLE>
					<OBS_USED>16</OBS_USED>
					
					
					<RESIDUALS_ACCEPTED units="%">100.0</RESIDUALS_ACCEPTED>
					<WEIGHTED_RMS>2.531</WEIGHTED_RMS>
				</odParameters>
				<additionalParameters>
					
					
					
					
					
					<CD_AREA_OVER_MASS units="m**2/kg">0.108846</CD_AREA_OVER_MASS>
					<CR_AREA_OVER_MASS units="m**2/kg">0.000000</CR_AREA_OVER_MASS>
					<SEDR units="W/kg">2.33816E-02</SEDR>
				</additionalParameters>
				<stateVector>
					<COMMENT>State Vector</COMMENT>
					<X units="km">-880.362400577</X>
					<Y units="km">-558.876811187</Y>
					<Z units="km">-6752.858242122</Z>
					<X_DOT units="km/s">-2.043567274</X_DOT>
					<Y_DOT units="km/s">7.456825755</Y_DOT>
					<Z_DOT units="km/s">-0.216193718</Z_DOT>
				</stateVector>
				<covarianceMatrix>
					<COMMENT>Covariance Matrix</COMMENT>
					<CR_R units="m**2">2.899E+08</CR_R>
					<CT_R units="m**2">-1.623E+10</CT_R>
					<CT_T units="m**2">9.092E+11</CT_T>
					<CN_R units="m**2">7.509E+04</CN_R>
					<CN_T units="m**2">-1.417E+06</CN_T>
					<CN_N units="m**2">3.997E+04</CN_N>
					<CRDOT_R units="m**2/s">0.000E+00</CRDOT_R>
					<CRDOT_T units="m**2/s">0.000E+00</CRDOT_T>
					<CRDOT_N units="m**2/s">0.000E+00</CRDOT_N>
					<CRDOT_RDOT units="m**2/s**2">0.000E+00</CRDOT_RDOT>
					<CTDOT_R units="m**2/s">0.000E+00</CTDOT_R>
					<CTDOT_T units="m**2/s">0.000E+00</CTDOT_T>
					<CTDOT_N units="m**2/s">0.000E+00</CTDOT_N>
					<CTDOT_RDOT units="m**2/s**2">0.000E+00</CTDOT_RDOT>
					<CTDOT_TDOT units="m**2/s**2">0.000E+00</CTDOT_TDOT>
					<CNDOT_R units="m**2/s">0.000E+00</CNDOT_R>
					<CNDOT_T units="m**2/s">0.000E+00</CNDOT_T>
					<CNDOT_N units="m**2/s">0.000E+00</CNDOT_N>
					<CNDOT_RDOT units="m**2/s**2">0.000E+00</CNDOT_RDOT>
					<CNDOT_TDOT units="m**2/s**2">0.000E+00</CNDOT_TDOT>
					<CNDOT_NDOT units="m**2/s**2">0.000E+00</CNDOT_NDOT>
				</covarianceMatrix>
			</data>
		</segment>
	</body>
</cdm>
